LIME                    
1 62648U 25009AR  26068.73906781  .00013254  00000+0  47723-3 0  9995
2 62648  97.3985 151.4831 0001635  35.9029 324.2320 15.28703313 63766
STARLINK-34615          
1 66321U 25253C   26068.41897537  .00028856  00000+0  10534-2 0  9994
2 66321  42.9927 213.9600 0001516 149.7735 210.3204 15.27600643 20203
